{
  "type": "Feature",
  "properties": {
    "place_id": 249489078,
    "osm_type": "way",
    "osm_id": 1209035338,
    "place_rank": 26,
    "category": "highway",
    "type": "primary",
    "importance": 0.05340169604028378,
    "addresstype": "road",
    "name": "HITEC City Road",
    "display_name": "HITEC City Road, Madhapur, Ward 104 Kondapur, Greater Hyderabad Municipal Corporation West Zone, Hyderabad, Serilingampalle mandal, Ranga Reddy, Telangana, 500081, India"
  },
  "bbox": [
    78.37709,
    17.4435139,
    78.3794501,
    17.4502809
  ],
  "geometry": {
    "type": "LineString",
    "coordinates": [
      [
        78.3771071,
        17.4435139
      ],
      [
        78.37709,
        17.4437778
      ],
      [
        78.3770902,
        17.4437889
      ],
      [
        78.3770986,
        17.4442006
      ],
      [
        78.3770979,
        17.4442319
      ],
      [
        78.3770984,
        17.4443227
      ],
      [
        78.3771024,
        17.4444173
      ],
      [
        78.3771114,
        17.4444971
      ],
      [
        78.3771209,
        17.4445818
      ],
      [
        78.377147,
        17.4447516
      ],
      [
        78.3772323,
        17.445257
      ],
      [
        78.3773137,
        17.4458418
      ],
      [
        78.3773305,
        17.4459378
      ],
      [
        78.3773435,
        17.4460241
      ],
      [
        78.3773632,
        17.4461103
      ],
      [
        78.3773834,
        17.4461743
      ],
      [
        78.3774091,
        17.4462539
      ],
      [
        78.3774732,
        17.4463991
      ],
      [
        78.3777328,
        17.4468415
      ],
      [
        78.3778204,
        17.4469855
      ],
      [
        78.377944,
        17.4471953
      ],
      [
        78.3780512,
        17.4473718
      ],
      [
        78.3781487,
        17.4475248
      ],
      [
        78.3782333,
        17.4476462
      ],
      [
        78.3787084,
        17.4482074
      ],
      [
        78.3788378,
        17.4483813
      ],
      [
        78.3789099,
        17.4484995
      ],
      [
        78.3789873,
        17.4486464
      ],
      [
        78.3790352,
        17.4487564
      ],
      [
        78.3790746,
        17.4488566
      ],
      [
        78.3791069,
        17.4489582
      ],
      [
        78.3791415,
        17.4490827
      ],
      [
        78.3793302,
        17.4499277
      ],
      [
        78.3793675,
        17.4500617
      ],
      [
        78.3793901,
        17.4501432
      ],
      [
        78.3794025,
        17.4501778
      ],
      [
        78.3794088,
        17.4501955
      ],
      [
        78.3794501,
        17.4502809
      ]
    ]
  }
}